STARLINK-4457           
1 53663U 22105R   26025.62936720  .00000081  00000+0  98453-5 0  9995
2 53663  97.6037 268.8213 0002073  79.9075 280.2386 15.05657576186827
STARLINK-4471           
1 53664U 22105S   26025.65982539  .00002456  00000+0  17432-3 0  9992
2 53664  97.6019 268.7668 0003069  89.7755 270.3823 15.05650897186826
STARLINK-4334           
1 53665U 22105T   26025.62660652 -.00000095  00000+0 -23768-5 0  9999
2 53665  97.6050 268.8167 0001883  76.8329 283.3108 15.05650298186828
STARLINK-4406           
1 53667U 22105V   26025.60999272 -.00001707  00000+0 -11408-3 0  9999
2 53667  97.6009 268.8399 0003003  83.0965 277.0603 15.05654902186829
STARLINK-4458           
1 53668U 22105W   26025.64876450 -.00006593  00000+0 -45348-3 0  9994
2 53668  97.6015 268.7464 0001924  90.3043 269.8404 15.05623394186826
STARLINK-4464           
1 53669U 22105X   26025.62827698  .00000499  00000+0  43341-4 0  9992
2 53669  97.6020 268.0405 0000541  50.8126 309.3146 15.01272185186779
STARLINK-4459           
1 53670U 22105Y   26025.61829644 -.00000510  00000+0 -31104-4 0  9996
2 53670  97.6015 268.8040 0001927  85.5443 274.6004 15.05650269186824
STARLINK-4440           
1 53671U 22105Z   26025.61926595  .00002239  00000+0  17876-3 0  9997
2 53671  97.6045 268.0532 0002431  81.7313 278.4187 15.01272687186779
STARLINK-4428           
1 53672U 22105AA  26025.60607054  .00000856  00000+0  71154-4 0  9996
2 53672  97.6024 268.0623 0003254  34.1314 326.0119 15.01260860186770
STARLINK-4456           
1 53673U 22105AB  26025.65429441 -.00000464  00000+0 -27922-4 0  9995
2 53673  97.6009 268.8140 0002515  89.8455 270.3060 15.05649876186822
STARLINK-4620           
1 53674U 22105AC  26025.61347059  .00000207  00000+0  20695-4 0  9999
2 53674  97.6032 268.0467 0002589  79.2985 280.8531 15.01262044186772
STARLINK-4617           
1 53675U 22105AD  26025.26662118  .00002214  00000+0  15756-3 0  9998
2 53675  97.6022 268.4864 0002092  85.1720 274.9745 15.05655223186779
STARLINK-4621           
1 53676U 22105AE  26025.60976593  .00000023  00000+0  63755-5 0  9992
2 53676  97.6022 268.0436 0003606  58.9925 301.1653 15.01264787186776
STARLINK-4579           
1 53677U 22105AF  26025.62383076 -.00000431  00000+0 -25665-4 0  9995
2 53677  97.6024 268.7869 0002299  91.2684 268.8806 15.05653275186828
STARLINK-4632           
1 53679U 22105AH  26025.39123528 -.00000487  00000+0 -29499-4 0  9995
2 53679  97.6015 268.6265 0002883  87.9521 272.2036 15.05652215186793
STARLINK-4630           
1 53680U 22105AJ  26025.62105969 -.00000166  00000+0 -72779-5 0  9996
2 53680  97.6036 268.7652 0002171  91.7683 268.3792 15.05651972186829
STARLINK-4424           
1 53681U 22105AK  26025.60236119  .00000247  00000+0  23760-4 0  9990
2 53681  97.5993 268.0503 0004382  33.3539 326.7961 15.01264251186774
STARLINK-4438           
1 53682U 22105AL  26025.64044663  .00002513  00000+0  17834-3 0  9998
2 53682  97.6012 268.7333 0003381  63.9015 296.2559 15.05648469186823
STARLINK-4625           
1 53683U 22105AM  26025.60815513 -.00001431  00000+0 -10686-3 0  9993
2 53683  97.6021 268.0367 0002223  67.3197 292.8262 15.01259248186773
STARLINK-4624           
1 53684U 22105AN  26025.62457231  .00001056  00000+0  86701-4 0  9998
2 53684  97.6055 268.1136 0000792  73.5193 286.6118 15.01260574186753
STARLINK-4626           
1 53685U 22105AP  26025.60074839 -.00000802  00000+0 -57894-4 0  9997
2 53685  97.5988 268.0385 0002924  60.6063 299.5453 15.01262961186774
STARLINK-4467           
1 53686U 22105AQ  26025.23945725  .00006479  00000+0  50820-3 0  9993
2 53686  97.5998 267.7274 0001409 175.4991 184.6246 15.01284874186727
STARLINK-4569           
1 53687U 22105AR  26025.23891927  .00002475  00000+0  17564-3 0  9998
2 53687  97.6014 268.3449 0002414  72.7575 287.3916 15.05661466186762
STARLINK-4571           
1 53688U 22105AS  26025.59495346  .00000051  00000+0  85444-5 0  9995
2 53688  97.6018 268.0207 0003849  25.8959 334.2457 15.01264554186770
STARLINK-4570           
1 53690U 22105AU  26025.61717538  .00000116  00000+0  13552-4 0  9993
2 53690  97.6037 267.9936 0003273  79.9163 280.2431 15.01266417186771
STARLINK-4560           
1 53691U 22105AV  26025.61275060 -.00000169  00000+0 -75095-5 0  9994
2 53691  97.6018 268.7530 0002648  98.5048 261.6479 15.05654383186822
STARLINK-4572           
1 53692U 22105AW  26025.67643524  .00052572  00000+0  25388-2 0  9995
2 53692  97.6243 272.2203 0004063  55.7928 304.3690 15.18453696187026
STARLINK-4566           
1 53693U 22105AX  26025.16969853  .00002004  00000+0  14305-3 0  9999
2 53693  97.6004 268.4115 0001903 109.4244 250.7189 15.05657655186763
YAOGAN-33 02            
1 53698U 22106A   26025.86116821  .00000333  00000+0  81328-4 0  9994
2 53698  98.1841  35.8435 0000967 203.2031 156.9125 14.58661643180973
STARLINK-4725           
1 53700U 22107A   26025.53116994 -.00000743  00000+0 -28600-4 0  9995
2 53700  53.2176  77.4929 0001210 107.8166 252.2958 15.08858039188346
STARLINK-4711           
1 53701U 22107B   26025.52748352 -.00004035  00000+0 -23544-3 0  9993
2 53701  53.2180  77.4718 0001391  93.5078 266.6073 15.08861212188345
STARLINK-4724           
1 53702U 22107C   26025.81779182  .00000924  00000+0  76157-4 0  9991
2 53702  53.2183  61.4800 0001573  81.3565 278.7605 15.08835738188622
STARLINK-4731           
1 53703U 22107D   26025.40975070  .00001488  00000+0  11160-3 0  9999
2 53703  53.2174  78.1574 0001466  92.7922 267.3238 15.08828554188321
STARLINK-4714           
1 53704U 22107E   26025.45765837 -.00001978  00000+0 -10621-3 0  9990
2 53704  53.2183  78.4540 0001467  90.0017 270.1143 15.08840259188160
STARLINK-4717           
1 53705U 22107F   26025.45398262 -.00000065  00000+0  14023-4 0  9991
2 53705  53.2178  78.4314 0001357  81.5474 278.5672 15.08842622188327
STARLINK-4716           
1 53706U 22107G   26025.37299338 -.00002500  00000+0 -13904-3 0  9990
2 53706  53.2169  78.6330 0001418  88.4667 271.6487 15.08843678188315
STARLINK-4667           
1 53707U 22107H   26025.49764411 -.00000515  00000+0 -14260-4 0  9994
2 53707  53.2170  63.0309 0001242  80.4651 279.6481 15.08841143188544
STARLINK-4694           
1 53708U 22107J   26025.81410947  .00000381  00000+0  42013-4 0  9999
2 53708  53.2197  61.4622 0001404  84.6877 275.4276 15.08846199188597
STARLINK-4685           
1 53709U 22107K   26025.53625961 -.00001511  00000+0 -76847-4 0  9993
2 53709  53.2179  82.5415 0001505  93.6828 266.4336 15.08837253187968
STARLINK-4627           
1 53711U 22107M   26025.54729747 -.00000419  00000+0 -82208-5 0  9999
2 53711  53.2184  82.5994 0001403  84.0572 276.0580 15.08850230187964
STARLINK-4683           
1 53712U 22107N   26025.38902273 -.00002164  00000+0 -11789-3 0  9992
2 53712  53.2163  83.0478 0001749 107.7804 252.3379 15.08844206187968
STARLINK-4686           
1 53715U 22107R   26025.60755760  .00015329  00000+0  97845-3 0  9999
2 53715  53.2154  87.2408 0001328  85.4404 274.6739 15.08864074187918
STARLINK-4699           
1 53716U 22107S   26025.60383269 -.00003458  00000+0 -19901-3 0  9990
2 53716  53.2180  87.2208 0001462 113.2494 246.8652 15.08886863187908
STARLINK-4695           
1 53718U 22107U   26025.39513291 -.00001116  00000+0 -52003-4 0  9998
2 53718  53.2172  88.7383 0001504  99.4576 260.6587 15.08839498187862
STARLINK-4644           
1 53719U 22107V   26025.39683175  .00017677  00000+0  11268-2 0  9991
2 53719  53.2169  58.0925 0001351  83.9585 276.1561 15.08813036188303
STARLINK-4642           
1 53720U 22107W   26025.54498859  .00000401  00000+0  43284-4 0  9995
2 53720  53.2169  87.5643 0001879  92.0531 268.0676 15.08842151187908
STARLINK-4707           
1 53721U 22107X   26025.55235978 -.00002247  00000+0 -12311-3 0  9996
2 53721  53.2184  87.6070 0001530  88.3579 271.7588 15.08850134187908
STARLINK-4700           
1 53722U 22107Y   26025.55972570  .00003836  00000+0  25890-3 0  9992
2 53722  53.2157  87.6488 0001181 100.3444 259.7681 15.08851451187891
STARLINK-4705           
1 53723U 22107Z   26025.46769557 -.00000711  00000+0 -26606-4 0  9990
2 53723  53.2169  87.7954 0001496  97.9569 262.1593 15.08845895188034
STARLINK-4663           
1 53724U 22107AA  26025.54868103  .00001540  00000+0  11477-3 0  9995
2 53724  53.2175  87.5855 0001352  68.0828 292.0308 15.08851685187903
STARLINK-4697           
1 53726U 22107AC  26025.55604482 -.00000049  00000+0  15044-4 0  9995
2 53726  53.2163  87.6320 0001495  87.4858 272.6305 15.08842858187909
STARLINK-4701           
1 53727U 22107AD  26025.56708513  .00001121  00000+0  88476-4 0  9997
2 53727  53.2174  87.6975 0001193 119.7759 240.3352 15.08853976188045
STARLINK-4640           
1 53728U 22107AE  26025.56342944  .00011292  00000+0  72780-3 0  9990
2 53728  53.2159  87.6808 0002815  34.6805 325.4370 15.08768585188049
STARLINK-4651           
1 53729U 22107AF  26025.44567230 -.00001544  00000+0 -78884-4 0  9998
2 53729  53.2170  88.3634 0001142 114.2184 245.8927 15.08858200188053
STARLINK-4641           
1 53730U 22107AG  26025.43830091 -.00000668  00000+0 -23861-4 0  9998
2 53730  53.2153  88.3143 0001183 111.8959 248.2159 15.08854784188023
STARLINK-4636           
1 53731U 22107AH  26025.57165043  .00020869  00000+0  12879-2 0  9990
2 53731  53.2146  87.7276 0002745  36.1546 323.9631 15.09890502188072
STARLINK-4661           
1 53732U 22107AJ  26025.57542436 -.00000861  00000+0 -36018-4 0  9991
2 53732  53.2173  87.7481 0001505 110.8597 249.2557 15.08844559188044
STARLINK-4574           
1 53733U 22107AK  26025.58920893 -.00001526  00000+0 -77785-4 0  9995
2 53733  53.2173  87.8320 0001174 105.9018 254.2104 15.08851612188078
STARLINK-4616           
1 53734U 22107AL  26025.57446771 -.00000118  00000+0  10670-4 0  9998
2 53734  53.2177  87.7472 0001432  94.6123 265.5033 15.08837345188071
